start=new Date('2022-10-17T00:00:00.000Z').valueOf();
sats=[{"MEAN_MOTION":"15.08823424","MEAN_MOTION_DOT":"0.00026346","LAUNCH_DATE":"2022-07-17","DECAY_DATE":null,"TLE_LINE2":"2 53135  53.2172 339.6846 0002318  34.4389 237.7318 15.08823424  1305","EPHEMERIS_TYPE":"0","PERIAPSIS":"538.192","OBJECT_TYPE":"PAYLOAD","RA_OF_ASC_NODE":"339.6846","EPOCH":"2022-10-16T22:00:00.999936","BSTAR":"0.00166800000000","ARG_OF_PERICENTER":"34.4389","INCLINATION":"53.2172","PERIOD":"95.439","GP_ID":"215349969","OBJECT_NAME":"STARLINK-4023","RCS_SIZE":"LARGE","REF_FRAME":"TEME","MEAN_ANOMALY":"237.7318","MEAN_MOTION_DDOT":"0.0000000000000","TIME_SYSTEM":"UTC","OBJECT_ID":"2022-083D","CENTER_NAME":"EARTH","COUNTRY_CODE":"US","REV_AT_EPOCH":"130","APOAPSIS":"541.400","ECCENTRICITY":"0.00023180","MEAN_ELEMENT_THEORY":"SGP4","ELEMENT_SET_NO":"999","NORAD_CAT_ID":"53135","FILE":"3617955","TLE_LINE1":"1 53135U 22083D   22289.91667824  .00026346  00000-0  16680-2 0  9992","SEMIMAJOR_AXIS":"6917.931","SITE":"AFETR","CLASSIFICATION_TYPE":"U"},{"PERIAPSIS":"538.166","OBJECT_TYPE":"PAYLOAD","EPHEMERIS_TYPE":"0","TLE_LINE2":"2 53136  53.2167 339.6846 0002234  36.7611 255.4879 15.08851155  1301","DECAY_DATE":null,"LAUNCH_DATE":"2022-07-17","MEAN_MOTION_DOT":"0.00003260","MEAN_MOTION":"15.08851155","GP_ID":"215349219","OBJECT_NAME":"STARLINK-4152","PERIOD":"95.437","INCLINATION":"53.2167","BSTAR":"0.00022279000000","ARG_OF_PERICENTER":"36.7611","EPOCH":"2022-10-16T22:00:00.999936","RA_OF_ASC_NODE":"339.6846","REV_AT_EPOCH":"130","COUNTRY_CODE":"US","CENTER_NAME":"EARTH","OBJECT_ID":"2022-083E","TIME_SYSTEM":"UTC","MEAN_ANOMALY":"255.4879","MEAN_MOTION_DDOT":"0.0000000000000","REF_FRAME":"TEME","RCS_SIZE":"LARGE","CLASSIFICATION_TYPE":"U","SITE":"AFETR","SEMIMAJOR_AXIS":"6917.846","FILE":"3617955","TLE_LINE1":"1 53136U 22083E   22289.91667824  .00003260  00000-0  22279-3 0  9995","NORAD_CAT_ID":"53136","ELEMENT_SET_NO":"999","MEAN_ELEMENT_THEORY":"SGP4","APOAPSIS":"541.257","ECCENTRICITY":"0.00022340"},{"CENTER_NAME":"EARTH","COUNTRY_CODE":"US","REV_AT_EPOCH":"130","RCS_SIZE":"LARGE","REF_FRAME":"TEME","MEAN_MOTION_DDOT":"0.0000000000000","MEAN_ANOMALY":"295.1949","TIME_SYSTEM":"UTC","OBJECT_ID":"2022-083F","ELEMENT_SET_NO":"999","NORAD_CAT_ID":"53137","TLE_LINE1":"1 53137U 22083F   22289.91667824  .00024529  00000-0  15550-2 0  9990","FILE":"3617955","SITE":"AFETR","SEMIMAJOR_AXIS":"6917.962","CLASSIFICATION_TYPE":"U","ECCENTRICITY":"0.00021720","APOAPSIS":"541.329","MEAN_ELEMENT_THEORY":"SGP4","TLE_LINE2":"2 53137  53.2177 339.6894 0002172  37.0006 295.1949 15.08813413  1303","EPHEMERIS_TYPE":"0","OBJECT_TYPE":"PAYLOAD","PERIAPSIS":"538.324","MEAN_MOTION":"15.08813413","MEAN_MOTION_DOT":"0.00024529","LAUNCH_DATE":"2022-07-17","DECAY_DATE":null,"INCLINATION":"53.2177","PERIOD":"95.439","OBJECT_NAME":"STARLINK-4145","GP_ID":"215350137","RA_OF_ASC_NODE":"339.6894","EPOCH":"2022-10-16T22:00:00.999936","BSTAR":"0.00155500000000","ARG_OF_PERICENTER":"37.0006"},{"EPOCH":"2022-10-16T22:00:00.999936","BSTAR":"0.00204300000000","ARG_OF_PERICENTER":"27.7208","RA_OF_ASC_NODE":"334.6678","PERIOD":"95.440","OBJECT_NAME":"STARLINK-4141","GP_ID":"215349803","INCLINATION":"53.2182","LAUNCH_DATE":"2022-07-17","DECAY_DATE":null,"MEAN_MOTION":"15.08805870","MEAN_MOTION_DOT":"0.00032346","EPHEMERIS_TYPE":"0","OBJECT_TYPE":"PAYLOAD","PERIAPSIS":"538.391","TLE_LINE2":"2 53138  53.2182 334.6678 0002108  27.7208  46.8956 15.08805870  1301","MEAN_ELEMENT_THEORY":"SGP4","ECCENTRICITY":"0.00021080","APOAPSIS":"541.308","SITE":"AFETR","SEMIMAJOR_AXIS":"6917.985","CLASSIFICATION_TYPE":"U","ELEMENT_SET_NO":"999","NORAD_CAT_ID":"53138","TLE_LINE1":"1 53138U 22083G   22289.91667824  .00032346  00000-0  20430-2 0  9990","FILE":"3617955","TIME_SYSTEM":"UTC","OBJECT_ID":"2022-083G","REF_FRAME":"TEME","RCS_SIZE":"LARGE","MEAN_MOTION_DDOT":"0.0000000000000","MEAN_ANOMALY":"46.8956","COUNTRY_CODE":"US","REV_AT_EPOCH":"130","CENTER_NAME":"EARTH"},{"SITE":"AFETR","SEMIMAJOR_AXIS":"6917.975","CLASSIFICATION_TYPE":"U","ELEMENT_SET_NO":"999","NORAD_CAT_ID":"53139","TLE_LINE1":"1 53139U 22083H   22289.91667824  .00026083  00000-0  16522-2 0  9999","FILE":"3617955","MEAN_ELEMENT_THEORY":"SGP4","ECCENTRICITY":"0.00024220","APOAPSIS":"541.516","COUNTRY_CODE":"US","REV_AT_EPOCH":"130","CENTER_NAME":"EARTH","TIME_SYSTEM":"UTC","OBJECT_ID":"2022-083H","RCS_SIZE":"LARGE","REF_FRAME":"TEME","MEAN_MOTION_DDOT":"0.0000000000000","MEAN_ANOMALY":"5.7656","PERIOD":"95.440","OBJECT_NAME":"STARLINK-4185","GP_ID":"215349553","INCLINATION":"53.2170","EPOCH":"2022-10-16T22:00:00.999936","BSTAR":"0.00165220000000","ARG_OF_PERICENTER":"26.5153","RA_OF_ASC_NODE":"339.6855","EPHEMERIS_TYPE":"0","PERIAPSIS":"538.165","OBJECT_TYPE":"PAYLOAD","TLE_LINE2":"2 53139  53.2170 339.6855 0002422  26.5153   5.7656 15.08808974  1305","LAUNCH_DATE":"2022-07-17","DECAY_DATE":null,"MEAN_MOTION":"15.08808974","MEAN_MOTION_DOT":"0.00026083"},{"RCS_SIZE":"LARGE","REF_FRAME":"TEME","MEAN_MOTION_DDOT":"0.0000000000000","MEAN_ANOMALY":"340.4003","TIME_SYSTEM":"UTC","OBJECT_ID":"2022-083J","CENTER_NAME":"EARTH","COUNTRY_CODE":"US","REV_AT_EPOCH":"130","ECCENTRICITY":"0.00024280","APOAPSIS":"541.520","MEAN_ELEMENT_THEORY":"SGP4","NORAD_CAT_ID":"53140","ELEMENT_SET_NO":"999","TLE_LINE1":"1 53140U 22083J   22289.91667824  .00026073  00000-0  16516-2 0  9993","FILE":"3617955","SEMIMAJOR_AXIS":"6917.975","SITE":"AFETR","CLASSIFICATION_TYPE":"U","MEAN_MOTION":"15.08808886","MEAN_MOTION_DOT":"0.00026073","LAUNCH_DATE":"2022-07-17","DECAY_DATE":null,"TLE_LINE2":"2 53140  53.2166 339.6878 0002428  31.8045 340.4003 15.08808886  1309","EPHEMERIS_TYPE":"0","PERIAPSIS":"538.161","OBJECT_TYPE":"PAYLOAD","RA_OF_ASC_NODE":"339.6878","EPOCH":"2022-10-16T22:00:00.999936","ARG_OF_PERICENTER":"31.8045","BSTAR":"0.00165160000000","INCLINATION":"53.2166","PERIOD":"95.440","OBJECT_NAME":"STARLINK-4170","GP_ID":"215349637"},{"MEAN_MOTION":"15.08814393","MEAN_MOTION_DOT":"0.00026040","LAUNCH_DATE":"2022-07-17","DECAY_DATE":null,"TLE_LINE2":"2 53141  53.2184 339.6652 0002431  19.0174  93.2415 15.08814393  1305","EPHEMERIS_TYPE":"0","OBJECT_TYPE":"PAYLOAD","PERIAPSIS":"538.142","RA_OF_ASC_NODE":"339.6652","EPOCH":"2022-10-16T22:00:00.999936","BSTAR":"0.00164930000000","ARG_OF_PERICENTER":"19.0174","INCLINATION":"53.2184","PERIOD":"95.439","OBJECT_NAME":"STARLINK-4103","GP_ID":"215350387","RCS_SIZE":"LARGE","REF_FRAME":"TEME","MEAN_ANOMALY":"93.2415","MEAN_MOTION_DDOT":"0.0000000000000","TIME_SYSTEM":"UTC","OBJECT_ID":"2022-083K","CENTER_NAME":"EARTH","COUNTRY_CODE":"US","REV_AT_EPOCH":"130","APOAPSIS":"541.505","ECCENTRICITY":"0.00024310","MEAN_ELEMENT_THEORY":"SGP4","NORAD_CAT_ID":"53141","ELEMENT_SET_NO":"999","FILE":"3617955","TLE_LINE1":"1 53141U 22083K   22289.91667824  .00026040  00000-0  16493-2 0  9992","SEMIMAJOR_AXIS":"6917.959","SITE":"AFETR","CLASSIFICATION_TYPE":"U"},{"DECAY_DATE":null,"LAUNCH_DATE":"2022-07-17","MEAN_MOTION_DOT":"0.00025473","MEAN_MOTION":"15.08798509","PERIAPSIS":"538.307","OBJECT_TYPE":"PAYLOAD","EPHEMERIS_TYPE":"0","TLE_LINE2":"2 53142  53.2181 339.6845 0002262  36.6845  15.5734 15.08798509  1300","BSTAR":"0.00161460000000","ARG_OF_PERICENTER":"36.6845","EPOCH":"2022-10-16T22:00:00.999936","RA_OF_ASC_NODE":"339.6845","OBJECT_NAME":"STARLINK-4101","GP_ID":"215349387","PERIOD":"95.440","INCLINATION":"53.2181","OBJECT_ID":"2022-083L","TIME_SYSTEM":"UTC","MEAN_MOTION_DDOT":"0.0000000000000","MEAN_ANOMALY":"15.5734","REF_FRAME":"TEME","RCS_SIZE":"LARGE","REV_AT_EPOCH":"130","COUNTRY_CODE":"US","CENTER_NAME":"EARTH","MEAN_ELEMENT_THEORY":"SGP4","ECCENTRICITY":"0.00022620","APOAPSIS":"541.437","CLASSIFICATION_TYPE":"U","SITE":"AFETR","SEMIMAJOR_AXIS":"6918.007","TLE_LINE1":"1 53142U 22083L   22289.91667824  .00025473  00000-0  16146-2 0  9997","FILE":"3617955","NORAD_CAT_ID":"53142","ELEMENT_SET_NO":"999"},{"TLE_LINE2":"2 53143  53.2193 339.6695 0002293  30.8241 101.4010 15.08824461  1306","EPHEMERIS_TYPE":"0","PERIAPSIS":"538.207","OBJECT_TYPE":"PAYLOAD","MEAN_MOTION":"15.08824461","MEAN_MOTION_DOT":"0.00025369","LAUNCH_DATE":"2022-07-17","DECAY_DATE":null,"INCLINATION":"53.2193","PERIOD":"95.439","OBJECT_NAME":"STARLINK-4102","GP_ID":"215349970","RA_OF_ASC_NODE":"339.6695","EPOCH":"2022-10-16T22:00:00.999936","BSTAR":"0.00160700000000","ARG_OF_PERICENTER":"30.8241","CENTER_NAME":"EARTH","COUNTRY_CODE":"US","REV_AT_EPOCH":"130","RCS_SIZE":"LARGE","REF_FRAME":"TEME","MEAN_ANOMALY":"101.4010","MEAN_MOTION_DDOT":"0.0000000000000","TIME_SYSTEM":"UTC","OBJECT_ID":"2022-083M","NORAD_CAT_ID":"53143","ELEMENT_SET_NO":"999","FILE":"3617955","TLE_LINE1":"1 53143U 22083M   22289.91667824  .00025369  00000-0  16070-2 0  9998","SEMIMAJOR_AXIS":"6917.928","SITE":"AFETR","CLASSIFICATION_TYPE":"U","ECCENTRICITY":"0.00022930","APOAPSIS":"541.379","MEAN_ELEMENT_THEORY":"SGP4"},{"MEAN_ELEMENT_THEORY":"SGP4","APOAPSIS":"541.282","ECCENTRICITY":"0.00020760","CLASSIFICATION_TYPE":"U","SITE":"AFETR","SEMIMAJOR_AXIS":"6917.981","TLE_LINE1":"1 53144U 22083N   22289.91667824  .00018721  00000-0  11923-2 0  9995","FILE":"3617955","NORAD_CAT_ID":"53144","ELEMENT_SET_NO":"999","OBJECT_ID":"2022-083N","TIME_SYSTEM":"UTC","MEAN_MOTION_DDOT":"0.0000000000000","MEAN_ANOMALY":"42.8410","RCS_SIZE":"LARGE","REF_FRAME":"TEME","REV_AT_EPOCH":"130","COUNTRY_CODE":"US","CENTER_NAME":"EARTH","ARG_OF_PERICENTER":"29.4798","BSTAR":"0.00119230000000","EPOCH":"2022-10-16T22:00:00.999936","RA_OF_ASC_NODE":"339.6748","GP_ID":"215349220","OBJECT_NAME":"STARLINK-4100","PERIOD":"95.440","INCLINATION":"53.2197","DECAY_DATE":null,"LAUNCH_DATE":"2022-07-17","MEAN_MOTION_DOT":"0.00018721","MEAN_MOTION":"15.08807138","OBJECT_TYPE":"PAYLOAD","PERIAPSIS":"538.410","EPHEMERIS_TYPE":"0","TLE_LINE2":"2 53144  53.2197 339.6748 0002076  29.4798  42.8410 15.08807138  1304"}];
